ONEWEB-0275             
1 48993U 21060AC  26189.58457047 -.00000101  00000+0 -29702-3 0  9994
2 48993  87.9084 224.5254 0002028  96.9843 263.1519 13.16595549242379
ONEWEB-0276             
1 48994U 21060AD  26189.38983440  .00000100  00000+0  22673-3 0  9991
2 48994  87.9080 224.5636 0001929  93.4845 266.6507 13.16593170242365
ONEWEB-0277             
1 48995U 21060AE  26189.32651205  .00000028  00000+0  39529-4 0  9995
2 48995  87.9079 224.5841 0002077  98.7776 261.3591 13.16595346242348
ONEWEB-0278             
1 48996U 21060AF  26189.39300220  .00000041  00000+0  73388-4 0  9997
2 48996  87.9081 224.5622 0002260  90.6928 269.4462 13.16593106242486
ONEWEB-0279             
1 48997U 21060AG  26189.32492070  .00000038  00000+0  66625-4 0  9998
2 48997  87.9082 224.5742 0001949 101.1457 258.9893 13.16593223242402
ONEWEB-0280             
1 48998U 21060AH  26189.33995879  .00000071  00000+0  15132-3 0  9998
2 48998  87.9082 224.5751 0002399  98.1203 262.0201 13.16595548242341
ONEWEB-0281             
1 48999U 21060AJ  26189.49749389 -.00000124  00000+0 -35745-3 0  9992
2 48999  87.9081 224.5392 0002108  93.3255 266.8118 13.16592480242435
ONEWEB-0282             
1 49000U 21060AK  26189.37558428  .00000041  00000+0  74520-4 0  9996
2 49000  87.9077 224.5713 0002154  98.2279 261.9097 13.16594477242397
ONEWEB-0283             
1 49001U 21060AL  26189.59248335 -.00000013  00000+0 -67838-4 0  9999
2 49001  87.9075 224.5281 0002000  99.0887 261.0471 13.16592743242436
ONEWEB-0284             
1 49002U 21060AM  26189.58616230 -.00000096  00000+0 -28531-3 0  9999
2 49002  87.9092 224.5223 0002455  95.2061 264.9351 13.16593687242413
ONEWEB-0285             
1 49075U 21075A   26189.40668464  .00000049  00000+0  10094-3 0  9993
2 49075  87.8963 346.4426 0001815  87.3200 272.8136 13.12444937237999
ONEWEB-0286             
1 49076U 21075B   26188.93132388 -.00000373  00000+0 -10710-2 0  9998
2 49076  87.8952 346.5518 0001827  87.9313 272.2025 13.12442429237282
ONEWEB-0287             
1 49077U 21075C   26189.42877184  .00000021  00000+0  20850-4 0  9990
2 49077  87.9138   1.6395 0002027  79.5278 280.6082 13.17647693236428
ONEWEB-0288             
1 49078U 21075D   26189.44140291  .00000247  00000+0  65026-3 0  9998
2 49078  87.8961 346.4286 0002025  88.8607 271.2754 13.12441172237970
ONEWEB-0289             
1 49079U 21075E   26188.93596014 -.00002472  00000+0 -64042-2 0  9990
2 49079  87.9145   1.7554 0002039 101.3312 258.8049 13.17623387236932
ONEWEB-0290             
1 49080U 21075F   26189.44059583  .00000071  00000+0  15088-3 0  9992
2 49080  87.9146   1.6274 0002298  99.6291 260.5100 13.17650143236416
ONEWEB-0291             
1 49081U 21075G   26189.19759929 -.00000009  00000+0 -56084-4 0  9991
2 49081  87.9140   1.6818 0002216  86.5163 273.6222 13.17646507236372
ONEWEB-0293             
1 49082U 21075H   26189.45071487  .00000095  00000+0  21144-3 0  9998
2 49082  87.9138   1.6344 0002013  93.5415 266.5947 13.17649888236434
ONEWEB-0294             
1 49083U 21075J   26189.37194634 -.00000072  00000+0 -23664-3 0  9996
2 49083  87.8963 346.4463 0002132  97.4801 262.6570 13.12441627237353
ONEWEB-0295             
1 49084U 21075K   26189.44987731  .00000041  00000+0  73000-4 0  9997
2 49084  87.9136   1.6384 0002088  85.5042 274.6328 13.17649504236390
ONEWEB-0296             
1 49085U 21075L   26189.19914985  .00000345  00000+0  92476-3 0  9995
2 49085  87.8968 346.4889 0002127  89.6994 270.4378 13.12441789237332
ONEWEB-0297             
1 49086U 21075M   26189.38210521 -.00000330  00000+0 -95326-3 0  9995
2 49086  87.8952 346.4606 0001899  91.0551 269.0795 13.12442289237966
ONEWEB-0298             
1 49087U 21075N   26189.45424747 -.00000004  00000+0 -42296-4 0  9998
2 49087  87.9137   1.6361 0001762  88.8813 271.2520 13.17648674236427
ONEWEB-0299             
1 49088U 21075P   26189.45577488  .00000067  00000+0  13818-3 0  9994
2 49088  87.9151   1.6177 0001913  85.7003 274.4347 13.17647391236409
ONEWEB-0300             
1 49089U 21075Q   26189.37448337 -.00000172  00000+0 -51346-3 0  9993
2 49089  87.8966 346.4435 0001510  89.4532 270.6769 13.12441572237989
ONEWEB-0301             
1 49090U 21075R   26189.43463159  .00000352  00000+0  94236-3 0  9994
2 49090  87.8962 346.4295 0001497  95.6044 264.5255 13.12441811237351
ONEWEB-0302             
1 49091U 21075S   26189.42107972  .00000429  00000+0  11564-2 0  9999
2 49091  87.8961 346.4450 0002165  96.1809 263.9567 13.12441861237334
ONEWEB-0304             
1 49092U 21075T   26189.43045939 -.00000172  00000+0 -47513-3 0  9996
2 49092  87.9138   1.6437 0001965  87.0671 273.0685 13.17648257236379
ONEWEB-0305             
1 49093U 21075U   26189.42371137 -.00000188  00000+0 -51662-3 0  9995
2 49093  87.9147   1.6306 0002077  80.3649 279.7718 13.17649107236400
ONEWEB-0308             
1 49094U 21075V   26189.41429882  .00000283  00000+0  75073-3 0  9992
2 49094  87.8963 346.4382 0001852  94.7199 265.4141 13.12443067237347
