OBJECT_NAME,OBJECT_ID,EPOCH,MEAN_MOTION,ECCENTRICITY,INCLINATION,RA_OF_ASC_NODE,ARG_OF_PERICENTER,MEAN_ANOMALY,EPHEMERIS_TYPE,CLASSIFICATION_TYPE,NORAD_CAT_ID,ELEMENT_SET_NO,REV_AT_EPOCH,BSTAR,MEAN_MOTION_DOT,MEAN_MOTION_DDOT
ONEWEB-0275,2021-060AC,2026-07-08T14:01:46.888608,13.16595549,.00020281,87.9084,224.5254,96.9843,263.1519,0,U,48993,999,24237,-.29701763E-3,-.101E-5,0
ONEWEB-0276,2021-060AD,2026-07-08T09:21:21.692160,13.16593170,.00019297,87.9080,224.5636,93.4845,266.6507,0,U,48994,999,24236,.22672935E-3,.1E-5,0
ONEWEB-0277,2021-060AE,2026-07-08T07:50:10.641120,13.16595346,.00020771,87.9079,224.5841,98.7776,261.3591,0,U,48995,999,24234,.39529157E-4,.28E-6,0
ONEWEB-0278,2021-060AF,2026-07-08T09:25:55.390080,13.16593106,.00022609,87.9081,224.5622,90.6928,269.4462,0,U,48996,999,24248,.73388465E-4,.41E-6,0
ONEWEB-0279,2021-060AG,2026-07-08T07:47:53.148480,13.16593223,.00019494,87.9082,224.5742,101.1457,258.9893,0,U,48997,999,24240,.66624629E-4,.38E-6,0
ONEWEB-0280,2021-060AH,2026-07-08T08:09:32.439456,13.16595548,.00023999,87.9082,224.5751,98.1203,262.0201,0,U,48998,999,24234,.15132193E-3,.71E-6,0
ONEWEB-0281,2021-060AJ,2026-07-08T11:56:23.472096,13.16592480,.00021089,87.9081,224.5392,93.3255,266.8118,0,U,48999,999,24243,-.35744757E-3,-.124E-5,0
ONEWEB-0282,2021-060AK,2026-07-08T09:00:50.481792,13.16594477,.00021543,87.9077,224.5713,98.2279,261.9097,0,U,49000,999,24239,.7451992E-4,.41E-6,0
ONEWEB-0283,2021-060AL,2026-07-08T14:13:10.561440,13.16592743,.00020001,87.9075,224.5281,99.0887,261.0471,0,U,49001,999,24243,-.67838222E-4,-.13E-6,0
ONEWEB-0284,2021-060AM,2026-07-08T14:04:04.422720,13.16593687,.00024555,87.9092,224.5223,95.2061,264.9351,0,U,49002,999,24241,-.28530906E-3,-.96E-6,0
ONEWEB-0285,2021-075A,2026-07-08T09:45:37.552896,13.12444937,.00018157,87.8963,346.4426,87.3200,272.8136,0,U,49075,999,23799,.10093994E-3,.49E-6,0
ONEWEB-0286,2021-075B,2026-07-07T22:21:06.383232,13.12442429,.0001827,87.8952,346.5518,87.9313,272.2025,0,U,49076,999,23728,-.10709929E-2,-.373E-5,0
ONEWEB-0287,2021-075C,2026-07-08T10:17:25.886976,13.17647693,.0002027,87.9138,1.6395,79.5278,280.6082,0,U,49077,999,23642,.20849853E-4,.21E-6,0
ONEWEB-0288,2021-075D,2026-07-08T10:35:37.211424,13.12441172,.00020254,87.8961,346.4286,88.8607,271.2754,0,U,49078,999,23797,.65025936E-3,.247E-5,0
ONEWEB-0289,2021-075E,2026-07-07T22:27:46.956096,13.17623387,.00020393,87.9145,1.7554,101.3312,258.8049,0,U,49079,999,23693,-.64041762E-2,-.2472E-4,0
ONEWEB-0290,2021-075F,2026-07-08T10:34:27.479712,13.17650143,.00022988,87.9146,1.6274,99.6291,260.5100,0,U,49080,999,23641,.15088041E-3,.71E-6,0
ONEWEB-0291,2021-075G,2026-07-08T04:44:32.578656,13.17646507,.00022165,87.9140,1.6818,86.5163,273.6222,0,U,49081,999,23637,-.5608417E-4,-.9E-7,0
ONEWEB-0293,2021-075H,2026-07-08T10:49:01.764768,13.17649888,.00020136,87.9138,1.6344,93.5415,266.5947,0,U,49082,999,23643,.21143829E-3,.95E-6,0
ONEWEB-0294,2021-075J,2026-07-08T08:55:36.163776,13.12441627,.00021324,87.8963,346.4463,97.4801,262.6570,0,U,49083,999,23735,-.23663934E-3,-.72E-6,0
ONEWEB-0295,2021-075K,2026-07-08T10:47:49.399584,13.17649504,.00020888,87.9136,1.6384,85.5042,274.6328,0,U,49084,999,23639,.7299963E-4,.41E-6,0
ONEWEB-0296,2021-075L,2026-07-08T04:46:46.547040,13.12441789,.00021275,87.8968,346.4889,89.6994,270.4378,0,U,49085,999,23733,.9247618E-3,.345E-5,0
ONEWEB-0297,2021-075M,2026-07-08T09:10:13.890144,13.12442289,.00018991,87.8952,346.4606,91.0551,269.0795,0,U,49086,999,23796,-.95325596E-3,-.33E-5,0
ONEWEB-0298,2021-075N,2026-07-08T10:54:06.981408,13.17648674,.00017624,87.9137,1.6361,88.8813,271.2520,0,U,49087,999,23642,-.42296248E-4,-.4E-7,0
ONEWEB-0299,2021-075P,2026-07-08T10:56:18.949632,13.17647391,.00019137,87.9151,1.6177,85.7003,274.4347,0,U,49088,999,23640,.1381805E-3,.67E-6,0
ONEWEB-0300,2021-075Q,2026-07-08T08:59:15.363168,13.12441572,.00015105,87.8966,346.4435,89.4532,270.6769,0,U,49089,999,23798,-.51346498E-3,-.172E-5,0
ONEWEB-0301,2021-075R,2026-07-08T10:25:52.169376,13.12441811,.00014971,87.8962,346.4295,95.6044,264.5255,0,U,49090,999,23735,.94236469E-3,.352E-5,0
ONEWEB-0302,2021-075S,2026-07-08T10:06:21.287808,13.12441861,.00021659,87.8961,346.4450,96.1809,263.9567,0,U,49091,999,23733,.115638E-2,.429E-5,0
ONEWEB-0304,2021-075T,2026-07-08T10:19:51.691296,13.17648257,.00019653,87.9138,1.6437,87.0671,273.0685,0,U,49092,999,23637,-.47513251E-3,-.172E-5,0
ONEWEB-0305,2021-075U,2026-07-08T10:10:08.662368,13.17649107,.00020778,87.9147,1.6306,80.3649,279.7718,0,U,49093,999,23640,-.51661655E-3,-.188E-5,0
ONEWEB-0308,2021-075V,2026-07-08T09:56:35.418048,13.12443067,.00018521,87.8963,346.4382,94.7199,265.4141,0,U,49094,999,23734,.75072726E-3,.283E-5,0
